start=new Date('2022-06-30T00:00:00.000Z').valueOf();
sats=[{"COUNTRY_CODE":"US","TIME_SYSTEM":"UTC","RA_OF_ASC_NODE":"32.1731","OBJECT_TYPE":"PAYLOAD","LAUNCH_DATE":"2022-04-21","EPOCH":"2022-06-29T22:00:00.999936","EPHEMERIS_TYPE":"0","ELEMENT_SET_NO":"999","RCS_SIZE":"LARGE","INCLINATION":"53.2150","APOAPSIS":"352.158","MEAN_ELEMENT_THEORY":"SGP4","ARG_OF_PERICENTER":"12.3040","GP_ID":"207122622","SEMIMAJOR_AXIS":"6727.861","REV_AT_EPOCH":"130","REF_FRAME":"TEME","CLASSIFICATION_TYPE":"U","BSTAR":"0.00023306000000","MEAN_MOTION_DOT":"0.00032238","OBJECT_NAME":"STARLINK-3756","CENTER_NAME":"EARTH","FILE":"3505610","NORAD_CAT_ID":"52309","MEAN_MOTION_DDOT":"0.0000000000000","PERIOD":"91.532","ECCENTRICITY":"0.00036150","SITE":"AFETR","MEAN_MOTION":"15.73212129","DECAY_DATE":null,"PERIAPSIS":"347.293","MEAN_ANOMALY":"210.8028","OBJECT_ID":"2022-041BA","TLE_LINE1":"1 52309U 22041BA  22180.91667824  .00032238  00000-0  23306-3 0  9999","TLE_LINE2":"2 52309  53.2150  32.1731 0003615  12.3040 210.8028 15.73212129  1307"},{"OBJECT_NAME":"STARLINK-3688","MEAN_MOTION_DOT":"0.00035487","REF_FRAME":"TEME","BSTAR":"0.00025614000000","CLASSIFICATION_TYPE":"U","MEAN_MOTION_DDOT":"0.0000000000000","PERIOD":"91.533","ECCENTRICITY":"0.00038980","FILE":"3505610","NORAD_CAT_ID":"52310","CENTER_NAME":"EARTH","SITE":"AFETR","MEAN_MOTION":"15.73198504","TLE_LINE1":"1 52310U 22041BB  22180.91667824  .00035487  00000-0  25614-3 0  9994","TLE_LINE2":"2 52310  53.2147  32.1690 0003898  11.2099 213.8039 15.73198504  1309","DECAY_DATE":null,"PERIAPSIS":"347.142","MEAN_ANOMALY":"213.8039","OBJECT_ID":"2022-041BB","EPOCH":"2022-06-29T22:00:00.999936","EPHEMERIS_TYPE":"0","ELEMENT_SET_NO":"999","COUNTRY_CODE":"US","TIME_SYSTEM":"UTC","RA_OF_ASC_NODE":"32.1690","OBJECT_TYPE":"PAYLOAD","LAUNCH_DATE":"2022-04-21","MEAN_ELEMENT_THEORY":"SGP4","INCLINATION":"53.2147","RCS_SIZE":"LARGE","APOAPSIS":"352.387","GP_ID":"207122321","SEMIMAJOR_AXIS":"6727.899","ARG_OF_PERICENTER":"11.2099","REV_AT_EPOCH":"130"},{"TIME_SYSTEM":"UTC","RA_OF_ASC_NODE":"32.1715","LAUNCH_DATE":"2022-04-21","OBJECT_TYPE":"PAYLOAD","COUNTRY_CODE":"US","EPHEMERIS_TYPE":"0","ELEMENT_SET_NO":"999","EPOCH":"2022-06-29T22:00:00.999936","APOAPSIS":"352.452","RCS_SIZE":"LARGE","INCLINATION":"53.2148","MEAN_ELEMENT_THEORY":"SGP4","ARG_OF_PERICENTER":"7.6040","GP_ID":"207122522","SEMIMAJOR_AXIS":"6727.835","REV_AT_EPOCH":"130","REF_FRAME":"TEME","BSTAR":"0.00025919000000","CLASSIFICATION_TYPE":"U","MEAN_MOTION_DOT":"0.00035955","OBJECT_NAME":"STARLINK-3750","FILE":"3505610","NORAD_CAT_ID":"52311","CENTER_NAME":"EARTH","ECCENTRICITY":"0.00040900","MEAN_MOTION_DDOT":"0.0000000000000","PERIOD":"91.532","SITE":"AFETR","MEAN_MOTION":"15.73220932","MEAN_ANOMALY":"216.7640","OBJECT_ID":"2022-041BC","DECAY_DATE":null,"PERIAPSIS":"346.949","TLE_LINE2":"2 52311  53.2148  32.1715 0004090   7.6040 216.7640 15.73220932  1300","TLE_LINE1":"1 52311U 22041BC  22180.91667824  .00035955  00000-0  25919-3 0  9993"},{"REV_AT_EPOCH":"130","GP_ID":"207122421","SEMIMAJOR_AXIS":"6727.917","ARG_OF_PERICENTER":"8.3343","MEAN_ELEMENT_THEORY":"SGP4","RCS_SIZE":"LARGE","INCLINATION":"53.2148","APOAPSIS":"352.480","EPOCH":"2022-06-29T22:00:00.999936","ELEMENT_SET_NO":"999","EPHEMERIS_TYPE":"0","COUNTRY_CODE":"US","OBJECT_TYPE":"PAYLOAD","LAUNCH_DATE":"2022-04-21","RA_OF_ASC_NODE":"32.1677","TIME_SYSTEM":"UTC","TLE_LINE1":"1 52312U 22041BD  22180.91667824  .00000460  00000-0  77289-5 0  9996","TLE_LINE2":"2 52312  53.2148  32.1677 0004010   8.3343 217.2887 15.73192252  1306","PERIAPSIS":"347.084","DECAY_DATE":null,"MEAN_ANOMALY":"217.2887","OBJECT_ID":"2022-041BD","SITE":"AFETR","MEAN_MOTION":"15.73192252","PERIOD":"91.534","MEAN_MOTION_DDOT":"0.0000000000000","ECCENTRICITY":"0.00040100","CENTER_NAME":"EARTH","FILE":"3505610","NORAD_CAT_ID":"52312","MEAN_MOTION_DOT":"0.00000460","OBJECT_NAME":"STARLINK-3752","BSTAR":"0.00000772890000","CLASSIFICATION_TYPE":"U","REF_FRAME":"TEME"},{"MEAN_MOTION_DDOT":"0.0000000000000","PERIOD":"91.532","ECCENTRICITY":"0.00040560","CENTER_NAME":"EARTH","FILE":"3505610","NORAD_CAT_ID":"52313","MEAN_MOTION_DOT":"-0.00038456","OBJECT_NAME":"STARLINK-3749","REF_FRAME":"TEME","CLASSIFICATION_TYPE":"U","BSTAR":"-0.00027044000000","TLE_LINE1":"1 52313U 22041BE  22180.91667824 -.00038456  00000-0 -27044-3 0  9997","TLE_LINE2":"2 52313  53.2154  32.1671 0004056   8.3319 217.8534 15.73218745  1302","DECAY_DATE":null,"PERIAPSIS":"346.978","OBJECT_ID":"2022-041BE","MEAN_ANOMALY":"217.8534","SITE":"AFETR","MEAN_MOTION":"15.73218745","MEAN_ELEMENT_THEORY":"SGP4","INCLINATION":"53.2154","RCS_SIZE":"LARGE","APOAPSIS":"352.436","EPOCH":"2022-06-29T22:00:00.999936","EPHEMERIS_TYPE":"0","ELEMENT_SET_NO":"999","COUNTRY_CODE":"US","RA_OF_ASC_NODE":"32.1671","TIME_SYSTEM":"UTC","LAUNCH_DATE":"2022-04-21","OBJECT_TYPE":"PAYLOAD","REV_AT_EPOCH":"130","GP_ID":"207122269","SEMIMAJOR_AXIS":"6727.842","ARG_OF_PERICENTER":"8.3319"},{"GP_ID":"207122624","SEMIMAJOR_AXIS":"6913.152","ARG_OF_PERICENTER":"44.1089","REV_AT_EPOCH":"130","EPHEMERIS_TYPE":"0","ELEMENT_SET_NO":"999","EPOCH":"2022-06-29T22:00:00.999936","TIME_SYSTEM":"UTC","RA_OF_ASC_NODE":"143.9987","LAUNCH_DATE":"2022-04-29","OBJECT_TYPE":"PAYLOAD","COUNTRY_CODE":"US","MEAN_ELEMENT_THEORY":"SGP4","APOAPSIS":"536.246","RCS_SIZE":"LARGE","INCLINATION":"53.2175","SITE":"AFETR","MEAN_MOTION":"15.10388404","TLE_LINE2":"2 52331  53.2175 143.9987 0001779  44.1089 222.1203 15.10388404  1300","TLE_LINE1":"1 52331U 22045A   22180.91667824 -.00720670  00000-0 -46617-1 0  9992","MEAN_ANOMALY":"222.1203","OBJECT_ID":"2022-045A","DECAY_DATE":null,"PERIAPSIS":"533.787","OBJECT_NAME":"STARLINK-3889","MEAN_MOTION_DOT":"-0.00720670","REF_FRAME":"TEME","BSTAR":"-0.04661700000000","CLASSIFICATION_TYPE":"U","ECCENTRICITY":"0.00017790","MEAN_MOTION_DDOT":"0.0000000000000","PERIOD":"95.340","NORAD_CAT_ID":"52331","FILE":"3505610","CENTER_NAME":"EARTH"},{"SEMIMAJOR_AXIS":"6914.962","GP_ID":"207122323","ARG_OF_PERICENTER":"42.7674","REV_AT_EPOCH":"130","ELEMENT_SET_NO":"999","EPHEMERIS_TYPE":"0","EPOCH":"2022-06-29T22:00:00.999936","LAUNCH_DATE":"2022-04-29","OBJECT_TYPE":"PAYLOAD","TIME_SYSTEM":"UTC","RA_OF_ASC_NODE":"143.9945","COUNTRY_CODE":"US","MEAN_ELEMENT_THEORY":"SGP4","APOAPSIS":"538.140","RCS_SIZE":"LARGE","INCLINATION":"53.2175","MEAN_MOTION":"15.09795350","SITE":"AFETR","TLE_LINE2":"2 52332  53.2175 143.9945 0001899  42.7674 165.2149 15.09795350  1308","TLE_LINE1":"1 52332U 22045B   22180.91667824 -.00724772  00000-0 -47678-1 0  9998","OBJECT_ID":"2022-045B","MEAN_ANOMALY":"165.2149","PERIAPSIS":"535.514","DECAY_DATE":null,"MEAN_MOTION_DOT":"-0.00724772","OBJECT_NAME":"STARLINK-3831","CLASSIFICATION_TYPE":"U","BSTAR":"-0.04767800000000","REF_FRAME":"TEME","ECCENTRICITY":"0.00018990","PERIOD":"95.377","MEAN_MOTION_DDOT":"0.0000000000000","CENTER_NAME":"EARTH","FILE":"3505610","NORAD_CAT_ID":"52332"},{"ARG_OF_PERICENTER":"55.3453","GP_ID":"207122524","SEMIMAJOR_AXIS":"6914.361","REV_AT_EPOCH":"130","COUNTRY_CODE":"US","RA_OF_ASC_NODE":"143.9959","TIME_SYSTEM":"UTC","OBJECT_TYPE":"PAYLOAD","LAUNCH_DATE":"2022-04-29","EPOCH":"2022-06-29T22:00:00.999936","EPHEMERIS_TYPE":"0","ELEMENT_SET_NO":"999","INCLINATION":"53.2175","RCS_SIZE":"LARGE","APOAPSIS":"537.355","MEAN_ELEMENT_THEORY":"SGP4","SITE":"AFETR","MEAN_MOTION":"15.09992018","DECAY_DATE":null,"PERIAPSIS":"535.097","MEAN_ANOMALY":"172.1453","OBJECT_ID":"2022-045C","TLE_LINE1":"1 52333U 22045C   22180.91667824 -.00720881  00000-0 -47148-1 0  9998","TLE_LINE2":"2 52333  53.2175 143.9959 0001633  55.3453 172.1453 15.09992018  1300","REF_FRAME":"TEME","BSTAR":"-0.04714800000000","CLASSIFICATION_TYPE":"U","OBJECT_NAME":"STARLINK-3847","MEAN_MOTION_DOT":"-0.00720881","FILE":"3505610","CENTER_NAME":"EARTH","NORAD_CAT_ID":"52333","MEAN_MOTION_DDOT":"0.0000000000000","PERIOD":"95.365","ECCENTRICITY":"0.00016330"},{"TLE_LINE1":"1 52334U 22045D   22180.91667824 -.00720325  00000-0 -46337-1 0  9991","TLE_LINE2":"2 52334  53.2175 144.0000 0001850  39.6444 245.8155 15.10586451  1305","PERIAPSIS":"533.134","DECAY_DATE":null,"OBJECT_ID":"2022-045D","MEAN_ANOMALY":"245.8155","SITE":"AFETR","MEAN_MOTION":"15.10586451","PERIOD":"95.327","MEAN_MOTION_DDOT":"0.0000000000000","ECCENTRICITY":"0.00018500","FILE":"3505610","CENTER_NAME":"EARTH","NORAD_CAT_ID":"52334","MEAN_MOTION_DOT":"-0.00720325","OBJECT_NAME":"STARLINK-3880","BSTAR":"-0.04633700000000","CLASSIFICATION_TYPE":"U","REF_FRAME":"TEME","REV_AT_EPOCH":"130","GP_ID":"207122423","SEMIMAJOR_AXIS":"6912.547","ARG_OF_PERICENTER":"39.6444","MEAN_ELEMENT_THEORY":"SGP4","INCLINATION":"53.2175","RCS_SIZE":"LARGE","APOAPSIS":"535.691","EPOCH":"2022-06-29T22:00:00.999936","ELEMENT_SET_NO":"999","EPHEMERIS_TYPE":"0","COUNTRY_CODE":"US","LAUNCH_DATE":"2022-04-29","OBJECT_TYPE":"PAYLOAD","TIME_SYSTEM":"UTC","RA_OF_ASC_NODE":"144.0000"},{"MEAN_ELEMENT_THEORY":"SGP4","APOAPSIS":"535.055","RCS_SIZE":"LARGE","INCLINATION":"53.2175","ELEMENT_SET_NO":"999","EPHEMERIS_TYPE":"0","EPOCH":"2022-06-29T22:00:00.999936","OBJECT_TYPE":"PAYLOAD","LAUNCH_DATE":"2022-04-29","TIME_SYSTEM":"UTC","RA_OF_ASC_NODE":"144.0013","COUNTRY_CODE":"US","REV_AT_EPOCH":"130","SEMIMAJOR_AXIS":"6911.943","GP_ID":"207122271","ARG_OF_PERICENTER":"40.3649","ECCENTRICITY":"0.00018040","PERIOD":"95.315","MEAN_MOTION_DDOT":"0.0000000000000","CENTER_NAME":"EARTH","FILE":"3505610","NORAD_CAT_ID":"52335","OBJECT_NAME":"STARLINK-3814","MEAN_MOTION_DOT":"-0.00719946","CLASSIFICATION_TYPE":"U","BSTAR":"-0.04605700000000","REF_FRAME":"TEME","TLE_LINE2":"2 52335  53.2175 144.0013 0001804  40.3649 264.2332 15.10784431  1305","TLE_LINE1":"1 52335U 22045E   22180.91667824 -.00719946  00000-0 -46057-1 0  9998","OBJECT_ID":"2022-045E","MEAN_ANOMALY":"264.2332","PERIAPSIS":"532.562","DECAY_DATE":null,"SITE":"AFETR","MEAN_MOTION":"15.10784431"}];
